SL-3 R/B                
1 13403U 82079B   25331.96842659  .00006740  00000+0  27996-3 0  9992
2 13403  81.1464 313.0709 0026398 146.6852 213.6049 15.23341334362207
SL-14 R/B               
1 13553U 82092B   25331.99703083  .00000654  00000+0  70978-4 0  9990
2 13553  82.5691 236.4979 0018819 279.7976  90.4070 14.86532064313820
SL-3 R/B                
1 13819U 83010B   25331.85825105  .00015170  00000+0  34266-3 0  9999
2 13819  81.1028 126.7755 0017901  42.6562 317.6067 15.42889732342222
SL-3 R/B                
1 14208U 83075B   25331.93306187  .00011624  00000+0  33467-3 0  9998
2 14208  97.6110 327.9247 0021247 230.3179 129.6190 15.35703626314527
COSMOS 1536             
1 14699U 84013A   25331.95180932  .00007051  00000+0  30427-3 0  9997
2 14699  82.5461 208.8256 0013238 283.8761  76.1002 15.22281987257139
SL-14 R/B               
1 14820U 84027B   25331.74013484  .00000579  00000+0  63606-4 0  9996
2 14820  82.5413 340.6244 0016830 314.8849  45.1000 14.85849662232491
SL-8 R/B                
1 15483U 85006B   25331.80082015  .00000351  00000+0  12510-3 0  9998
2 15483  74.0456  88.6185 0018045  25.1787  86.5986 14.37707265139381
SL-12 R/B(2)            
1 15772U 85042D   25331.89870644  .00000210  00000+0  11590-3 0  9992
2 15772  71.1080 302.7733 0037661 283.2373 117.8787 14.21944588 99921
SL-14 R/B               
1 15945U 85069B   25331.89052556  .00000729  00000+0  79809-4 0  9990
2 15945  82.5251 120.6626 0019202 165.3195 194.8584 14.86296438157717
SL-16 R/B               
1 16182U 85097B   25331.83139628 -.00000061  00000+0 -64564-5 0  9999
2 16182  71.0038 354.9907 0005824  35.4167 137.6680 14.16582566 72803
SL-14 R/B               
1 16496U 86006B   25331.82505043  .00000787  00000+0  81508-4 0  9994
2 16496  82.5271 355.5859 0075279 249.9749 109.3352 14.86640434134075
COSMOS 1743             
1 16719U 86034A   25331.62758608  .00026135  00000+0  44716-3 0  9992
2 16719  82.5358 180.2745 0005292 320.9377  39.1492 15.51096094164394
