CCSDS_OMM_VERS = 2.0
CREATION_DATE  = 
ORIGINATOR     = 

OBJECT_NAME    = SL-3 R/B
OBJECT_ID      = 1982-079B
CENTER_NAME    = EARTH
REF_FRAME      = TEME
TIME_SYSTEM    = UTC
MEAN_ELEMENT_THEORY = SGP/SGP4

EPOCH          = 2025-11-27T23:14:32.057376
MEAN_MOTION    = 15.23341334
ECCENTRICITY   = .00263983
INCLINATION    = 81.1464
RA_OF_ASC_NODE = 313.0709
ARG_OF_PERICENTER = 146.6852
MEAN_ANOMALY   = 213.6049

EPHEMERIS_TYPE = 0
CLASSIFICATION_TYPE = U
NORAD_CAT_ID   = 13403
ELEMENT_SET_NO = 999
REV_AT_EPOCH   = 36220
BSTAR          = .27996188E-3
MEAN_MOTION_DOT = .674E-4
MEAN_MOTION_DDOT = 0

CCSDS_OMM_VERS = 2.0
CREATION_DATE  = 
ORIGINATOR     = 

OBJECT_NAME    = SL-14 R/B
OBJECT_ID      = 1982-092B
CENTER_NAME    = EARTH
REF_FRAME      = TEME
TIME_SYSTEM    = UTC
MEAN_ELEMENT_THEORY = SGP/SGP4

EPOCH          = 2025-11-27T23:55:43.463712
MEAN_MOTION    = 14.86532064
ECCENTRICITY   = .00188192
INCLINATION    = 82.5691
RA_OF_ASC_NODE = 236.4979
ARG_OF_PERICENTER = 279.7976
MEAN_ANOMALY   = 90.4070

EPHEMERIS_TYPE = 0
CLASSIFICATION_TYPE = U
NORAD_CAT_ID   = 13553
ELEMENT_SET_NO = 999
REV_AT_EPOCH   = 31382
BSTAR          = .70977623E-4
MEAN_MOTION_DOT = .654E-5
MEAN_MOTION_DDOT = 0

CCSDS_OMM_VERS = 2.0
CREATION_DATE  = 
ORIGINATOR     = 

OBJECT_NAME    = SL-3 R/B
OBJECT_ID      = 1983-010B
CENTER_NAME    = EARTH
REF_FRAME      = TEME
TIME_SYSTEM    = UTC
MEAN_ELEMENT_THEORY = SGP/SGP4

EPOCH          = 2025-11-27T20:35:52.890720
MEAN_MOTION    = 15.42889732
ECCENTRICITY   = .00179015
INCLINATION    = 81.1028
RA_OF_ASC_NODE = 126.7755
ARG_OF_PERICENTER = 42.6562
MEAN_ANOMALY   = 317.6067

EPHEMERIS_TYPE = 0
CLASSIFICATION_TYPE = U
NORAD_CAT_ID   = 13819
ELEMENT_SET_NO = 999
REV_AT_EPOCH   = 34222
BSTAR          = .34265708E-3
MEAN_MOTION_DOT = .1517E-3
MEAN_MOTION_DDOT = 0

CCSDS_OMM_VERS = 2.0
CREATION_DATE  = 
ORIGINATOR     = 

OBJECT_NAME    = SL-3 R/B
OBJECT_ID      = 1983-075B
CENTER_NAME    = EARTH
REF_FRAME      = TEME
TIME_SYSTEM    = UTC
MEAN_ELEMENT_THEORY = SGP/SGP4

EPOCH          = 2025-11-27T22:23:36.545568
MEAN_MOTION    = 15.35703626
ECCENTRICITY   = .00212475
INCLINATION    = 97.6110
RA_OF_ASC_NODE = 327.9247
ARG_OF_PERICENTER = 230.3179
MEAN_ANOMALY   = 129.6190

EPHEMERIS_TYPE = 0
CLASSIFICATION_TYPE = U
NORAD_CAT_ID   = 14208
ELEMENT_SET_NO = 999
REV_AT_EPOCH   = 31452
BSTAR          = .33466552E-3
MEAN_MOTION_DOT = .11624E-3
MEAN_MOTION_DDOT = 0

CCSDS_OMM_VERS = 2.0
CREATION_DATE  = 
ORIGINATOR     = 

OBJECT_NAME    = COSMOS 1536
OBJECT_ID      = 1984-013A
CENTER_NAME    = EARTH
REF_FRAME      = TEME
TIME_SYSTEM    = UTC
MEAN_ELEMENT_THEORY = SGP/SGP4

EPOCH          = 2025-11-27T22:50:36.325248
MEAN_MOTION    = 15.22281987
ECCENTRICITY   = .00132384
INCLINATION    = 82.5461
RA_OF_ASC_NODE = 208.8256
ARG_OF_PERICENTER = 283.8761
MEAN_ANOMALY   = 76.1002

EPHEMERIS_TYPE = 0
CLASSIFICATION_TYPE = U
NORAD_CAT_ID   = 14699
ELEMENT_SET_NO = 999
REV_AT_EPOCH   = 25713
BSTAR          = .30427286E-3
MEAN_MOTION_DOT = .7051E-4
MEAN_MOTION_DDOT = 0

CCSDS_OMM_VERS = 2.0
CREATION_DATE  = 
ORIGINATOR     = 

OBJECT_NAME    = SL-14 R/B
OBJECT_ID      = 1984-027B
CENTER_NAME    = EARTH
REF_FRAME      = TEME
TIME_SYSTEM    = UTC
MEAN_ELEMENT_THEORY = SGP/SGP4

EPOCH          = 2025-11-27T17:45:47.650176
MEAN_MOTION    = 14.85849662
ECCENTRICITY   = .00168303
INCLINATION    = 82.5413
RA_OF_ASC_NODE = 340.6244
ARG_OF_PERICENTER = 314.8849
MEAN_ANOMALY   = 45.1000

EPHEMERIS_TYPE = 0
CLASSIFICATION_TYPE = U
NORAD_CAT_ID   = 14820
ELEMENT_SET_NO = 999
REV_AT_EPOCH   = 23249
BSTAR          = .63605923E-4
MEAN_MOTION_DOT = .579E-5
MEAN_MOTION_DDOT = 0

CCSDS_OMM_VERS = 2.0
CREATION_DATE  = 
ORIGINATOR     = 

OBJECT_NAME    = SL-8 R/B
OBJECT_ID      = 1985-006B
CENTER_NAME    = EARTH
REF_FRAME      = TEME
TIME_SYSTEM    = UTC
MEAN_ELEMENT_THEORY = SGP/SGP4

EPOCH          = 2025-11-27T19:13:10.860960
MEAN_MOTION    = 14.37707265
ECCENTRICITY   = .00180455
INCLINATION    = 74.0456
RA_OF_ASC_NODE = 88.6185
ARG_OF_PERICENTER = 25.1787
MEAN_ANOMALY   = 86.5986

EPHEMERIS_TYPE = 0
CLASSIFICATION_TYPE = U
NORAD_CAT_ID   = 15483
ELEMENT_SET_NO = 999
REV_AT_EPOCH   = 13938
BSTAR          = .12509609E-3
MEAN_MOTION_DOT = .351E-5
MEAN_MOTION_DDOT = 0

CCSDS_OMM_VERS = 2.0
CREATION_DATE  = 
ORIGINATOR     = 

OBJECT_NAME    = SL-12 R/B(2)
OBJECT_ID      = 1985-042D
CENTER_NAME    = EARTH
REF_FRAME      = TEME
TIME_SYSTEM    = UTC
MEAN_ELEMENT_THEORY = SGP/SGP4

EPOCH          = 2025-11-27T21:34:08.236416
MEAN_MOTION    = 14.21944588
ECCENTRICITY   = .00376615
INCLINATION    = 71.1080
RA_OF_ASC_NODE = 302.7733
ARG_OF_PERICENTER = 283.2373
MEAN_ANOMALY   = 117.8787

EPHEMERIS_TYPE = 0
CLASSIFICATION_TYPE = U
NORAD_CAT_ID   = 15772
ELEMENT_SET_NO = 999
REV_AT_EPOCH   = 9992
BSTAR          = .11589666E-3
MEAN_MOTION_DOT = .21E-5
MEAN_MOTION_DDOT = 0

CCSDS_OMM_VERS = 2.0
CREATION_DATE  = 
ORIGINATOR     = 

OBJECT_NAME    = SL-14 R/B
OBJECT_ID      = 1985-069B
CENTER_NAME    = EARTH
REF_FRAME      = TEME
TIME_SYSTEM    = UTC
MEAN_ELEMENT_THEORY = SGP/SGP4

EPOCH          = 2025-11-27T21:22:21.408384
MEAN_MOTION    = 14.86296438
ECCENTRICITY   = .00192021
INCLINATION    = 82.5251
RA_OF_ASC_NODE = 120.6626
ARG_OF_PERICENTER = 165.3195
MEAN_ANOMALY   = 194.8584

EPHEMERIS_TYPE = 0
CLASSIFICATION_TYPE = U
NORAD_CAT_ID   = 15945
ELEMENT_SET_NO = 999
REV_AT_EPOCH   = 15771
BSTAR          = .79808737E-4
MEAN_MOTION_DOT = .729E-5
MEAN_MOTION_DDOT = 0

CCSDS_OMM_VERS = 2.0
CREATION_DATE  = 
ORIGINATOR     = 

OBJECT_NAME    = SL-16 R/B
OBJECT_ID      = 1985-097B
CENTER_NAME    = EARTH
REF_FRAME      = TEME
TIME_SYSTEM    = UTC
MEAN_ELEMENT_THEORY = SGP/SGP4

EPOCH          = 2025-11-27T19:57:12.638592
MEAN_MOTION    = 14.16582566
ECCENTRICITY   = .00058249
INCLINATION    = 71.0038
RA_OF_ASC_NODE = 354.9907
ARG_OF_PERICENTER = 35.4167
MEAN_ANOMALY   = 137.6680

EPHEMERIS_TYPE = 0
CLASSIFICATION_TYPE = U
NORAD_CAT_ID   = 16182
ELEMENT_SET_NO = 999
REV_AT_EPOCH   = 7280
BSTAR          = -.6456422E-5
MEAN_MOTION_DOT = -.61E-6
MEAN_MOTION_DDOT = 0

CCSDS_OMM_VERS = 2.0
CREATION_DATE  = 
ORIGINATOR     = 

OBJECT_NAME    = SL-14 R/B
OBJECT_ID      = 1986-006B
CENTER_NAME    = EARTH
REF_FRAME      = TEME
TIME_SYSTEM    = UTC
MEAN_ELEMENT_THEORY = SGP/SGP4

EPOCH          = 2025-11-27T19:48:04.357152
MEAN_MOTION    = 14.86640434
ECCENTRICITY   = .00752795
INCLINATION    = 82.5271
RA_OF_ASC_NODE = 355.5859
ARG_OF_PERICENTER = 249.9749
MEAN_ANOMALY   = 109.3352

EPHEMERIS_TYPE = 0
CLASSIFICATION_TYPE = U
NORAD_CAT_ID   = 16496
ELEMENT_SET_NO = 999
REV_AT_EPOCH   = 13407
BSTAR          = .81508075E-4
MEAN_MOTION_DOT = .787E-5
MEAN_MOTION_DDOT = 0

CCSDS_OMM_VERS = 2.0
CREATION_DATE  = 
ORIGINATOR     = 

OBJECT_NAME    = COSMOS 1743
OBJECT_ID      = 1986-034A
CENTER_NAME    = EARTH
REF_FRAME      = TEME
TIME_SYSTEM    = UTC
MEAN_ELEMENT_THEORY = SGP/SGP4

EPOCH          = 2025-11-27T15:03:43.437312
MEAN_MOTION    = 15.51096094
ECCENTRICITY   = .00052928
INCLINATION    = 82.5358
RA_OF_ASC_NODE = 180.2745
ARG_OF_PERICENTER = 320.9377
MEAN_ANOMALY   = 39.1492

EPHEMERIS_TYPE = 0
CLASSIFICATION_TYPE = U
NORAD_CAT_ID   = 16719
ELEMENT_SET_NO = 999
REV_AT_EPOCH   = 16439
BSTAR          = .44715944E-3
MEAN_MOTION_DOT = .26135E-3
MEAN_MOTION_DDOT = 0

